{"type": "FeatureCollection", "features": [ {"type": "Feature", "properties": {"norad_id": 33870, "name": "IRIDIUM 33 DEB", "group": "iridium-33-debris", "lat": 63.672844393774206, "lon": -134.87133732855682, "alt_km": 717.6592992924589, "timestamp": "2025-12-26T04:40:06.169887+00:00", "meta": {"OBJECT_NAME": "IRIDIUM 33 DEB", "OBJECT_ID": "1997-051AP", "EPOCH": "2025-12-25T13:47:27.423744", "MEAN_MOTION": 14.45913655, "ECCENTRICITY": 0.0022685, "INCLINATION": 86.3733, "RA_OF_ASC_NODE": 52.7586, "ARG_OF_PERICENTER": 137.4912, "MEAN_ANOMALY": 353.9762, "EPHEMERIS_TYPE": 0, "CLASSIFICATION_TYPE": "U", "NORAD_CAT_ID": 33870, "ELEMENT_SET_NO": 999, "REV_AT_EPOCH": 88322, "BSTAR": 0.00071363, "MEAN_MOTION_DOT": 2.564e-05, "MEAN_MOTION_DDOT": 0}, "tle": {"line1": "1 33870U 97051AP  25359.57462296  .00002564  00000+0  71363-3 0  9997", "line2": "2 33870  86.3733  52.7586 0022685 137.4912 353.9762 14.45913655883227"}}, "geometry": {"type": "Point", "coordinates": [-134.87133732855682, 63.672844393774206]}}, {"type": "Feature", "properties": {"norad_id": 33881, "name": "IRIDIUM 33 DEB", "group": "iridium-33-debris", "lat": 32.5464472759636, "lon": -81.41745433295414, "alt_km": 660.070411621462, "timestamp": "2025-12-26T04:40:06.169897+00:00", "meta": {"OBJECT_NAME": "IRIDIUM 33 DEB", "OBJECT_ID": "1997-051BA", "EPOCH": "2025-12-24T19:37:00.349824", "MEAN_MOTION": 14.5678795, "ECCENTRICITY": 0.00611156, "INCLINATION": 86.3859, "RA_OF_ASC_NODE": 101.4931, "ARG_OF_PERICENTER": 135.6602, "MEAN_ANOMALY": 353.6404, "EPHEMERIS_TYPE": 0, "CLASSIFICATION_TYPE": "U", "NORAD_CAT_ID": 33881, "ELEMENT_SET_NO": 999, "REV_AT_EPOCH": 87676, "BSTAR": 0.0022055938, "MEAN_MOTION_DOT": 0.0001015, "MEAN_MOTION_DDOT": 0}, "tle": {"line1": "1 33881U 97051BA  25358.81736516  .00010150  00000+0  22056-2 0  9998", "line2": "2 33881  86.3859 101.4931 0061115 135.6602 353.6404 14.56787950876761"}}, "geometry": {"type": "Point", "coordinates": [-81.41745433295414, 32.5464472759636]}}, {"type": "Feature", "properties": {"norad_id": 33884, "name": "IRIDIUM 33 DEB", "group": "iridium-33-debris", "lat": 22.907074774470562, "lon": 5.280627775789866, "alt_km": 638.7549243880039, "timestamp": "2025-12-26T04:40:06.169908+00:00", "meta": {"OBJECT_NAME": "IRIDIUM 33 DEB", "OBJECT_ID": "1997-051BD", "EPOCH": "2025-12-25T23:47:22.731648", "MEAN_MOTION": 14.7769475, "ECCENTRICITY": 0.00087986, "INCLINATION": 86.3707, "RA_OF_ASC_NODE": 3.8355, "ARG_OF_PERICENTER": 270.5089, "MEAN_ANOMALY": 111.7796, "EPHEMERIS_TYPE": 0, "CLASSIFICATION_TYPE": "U", "NORAD_CAT_ID": 33884, "ELEMENT_SET_NO": 999, "REV_AT_EPOCH": 89043, "BSTAR": 0.001538831, "MEAN_MOTION_DOT": 0.00011058, "MEAN_MOTION_DDOT": 0}, "tle": {"line1": "1 33884U 97051BD  25359.99123532  .00011058  00000+0  15388-2 0  9997", "line2": "2 33884  86.3707   3.8355 0008798 270.5089 111.7796 14.77694750890432"}}, "geometry": {"type": "Point", "coordinates": [5.280627775789866, 22.907074774470562]}}, {"type": "Feature", "properties": {"norad_id": 33886, "name": "IRIDIUM 33 DEB", "group": "iridium-33-debris", "lat": 78.0011190770586, "lon": -135.75465173611556, "alt_km": 764.7759594979925, "timestamp": "2025-12-26T04:40:06.169919+00:00", "meta": {"OBJECT_NAME": "IRIDIUM 33 DEB", "OBJECT_ID": "1997-051BF", "EPOCH": "2025-12-25T15:21:52.682112", "MEAN_MOTION": 14.36066491, "ECCENTRICITY": 0.0013547, "INCLINATION": 86.3819, "RA_OF_ASC_NODE": 61.7984, "ARG_OF_PERICENTER": 196.0416, "MEAN_ANOMALY": 281.5931, "EPHEMERIS_TYPE": 0, "CLASSIFICATION_TYPE": "U", "NORAD_CAT_ID": 33886, "ELEMENT_SET_NO": 999, "REV_AT_EPOCH": 88237, "BSTAR": 0.00019058, "MEAN_MOTION_DOT": 5.74e-06, "MEAN_MOTION_DDOT": 0}, "tle": {"line1": "1 33886U 97051BF  25359.64019308  .00000574  00000+0  19058-3 0  9996", "line2": "2 33886  86.3819  61.7984 0013547 196.0416 281.5931 14.36066491882374"}}, "geometry": {"type": "Point", "coordinates": [-135.75465173611556, 78.0011190770586]}}, {"type": "Feature", "properties": {"norad_id": 33887, "name": "IRIDIUM 33 DEB", "group": "iridium-33-debris", "lat": 84.35570831094391, "lon": 136.75267507251334, "alt_km": 759.6095694381011, "timestamp": "2025-12-26T04:40:06.169929+00:00", "meta": {"OBJECT_NAME": "IRIDIUM 33 DEB", "OBJECT_ID": "1997-051BG", "EPOCH": "2025-12-25T23:29:19.958208", "MEAN_MOTION": 14.37232528, "ECCENTRICITY": 0.00058897, "INCLINATION": 86.3044, "RA_OF_ASC_NODE": 357.6865, "ARG_OF_PERICENTER": 176.6915, "MEAN_ANOMALY": 241.7187, "EPHEMERIS_TYPE": 0, "CLASSIFICATION_TYPE": "U", "NORAD_CAT_ID": 33887, "ELEMENT_SET_NO": 999, "REV_AT_EPOCH": 88355, "BSTAR": 0.00014636498, "MEAN_MOTION_DOT": 4.55e-06, "MEAN_MOTION_DDOT": 0}, "tle": {"line1": "1 33887U 97051BG  25359.97870322  .00000455  00000+0  14636-3 0  9999", "line2": "2 33887  86.3044 357.6865 0005889 176.6915 241.7187 14.37232528883557"}}, "geometry": {"type": "Point", "coordinates": [136.75267507251334, 84.35570831094391]}}, {"type": "Feature", "properties": {"norad_id": 33953, "name": "IRIDIUM 33 DEB", "group": "iridium-33-debris", "lat": 71.38055710682578, "lon": -142.88214660898498, "alt_km": 692.6175557223714, "timestamp": "2025-12-26T04:40:06.169940+00:00", "meta": {"OBJECT_NAME": "IRIDIUM 33 DEB", "OBJECT_ID": "1997-051BN", "EPOCH": "2025-12-25T15:33:55.183968", "MEAN_MOTION": 14.55441742, "ECCENTRICITY": 0.001753, "INCLINATION": 86.3832, "RA_OF_ASC_NODE": 48.1755, "ARG_OF_PERICENTER": 63.1805, "MEAN_ANOMALY": 66.1443, "EPHEMERIS_TYPE": 0, "CLASSIFICATION_TYPE": "U", "NORAD_CAT_ID": 33953, "ELEMENT_SET_NO": 999, "REV_AT_EPOCH": 88491, "BSTAR": 0.0011189, "MEAN_MOTION_DOT": 4.893e-05, "MEAN_MOTION_DDOT": 0}, "tle": {"line1": "1 33953U 97051BN  25359.64855537  .00004893  00000+0  11189-2 0  9997", "line2": "2 33953  86.3832  48.1755 0017530  63.1805  66.1443 14.55441742884915"}}, "geometry": {"type": "Point", "coordinates": [-142.88214660898498, 71.38055710682578]}}, {"type": "Feature", "properties": {"norad_id": 33960, "name": "IRIDIUM 33 DEB", "group": "iridium-33-debris", "lat": -69.88562762717947, "lon": -87.13824276299708, "alt_km": 619.7881858268511, "timestamp": "2025-12-26T04:40:06.169950+00:00", "meta": {"OBJECT_NAME": "IRIDIUM 33 DEB", "OBJECT_ID": "1997-051BV", "EPOCH": "2025-12-25T19:31:33.400992", "MEAN_MOTION": 14.85848128, "ECCENTRICITY": 0.00070784, "INCLINATION": 86.2535, "RA_OF_ASC_NODE": 283.3484, "ARG_OF_PERICENTER": 39.5343, "MEAN_ANOMALY": 14.0569, "EPHEMERIS_TYPE": 0, "CLASSIFICATION_TYPE": "U", "NORAD_CAT_ID": 33960, "ELEMENT_SET_NO": 999, "REV_AT_EPOCH": 89061, "BSTAR": 0.0032209235, "MEAN_MOTION_DOT": 0.00028154, "MEAN_MOTION_DDOT": 0}, "tle": {"line1": "1 33960U 97051BV  25359.81358103  .00028154  00000+0  32209-2 0  9993", "line2": "2 33960  86.2535 283.3484 0007078  39.5343  14.0569 14.85848128890611"}}, "geometry": {"type": "Point", "coordinates": [-87.13824276299708, -69.88562762717947]}}, {"type": "Feature", "properties": {"norad_id": 33966, "name": "IRIDIUM 33 DEB", "group": "iridium-33-debris", "lat": -44.734788632584426, "lon": 36.66703234267947, "alt_km": 739.7461458712351, "timestamp": "2025-12-26T04:40:06.169961+00:00", "meta": {"OBJECT_NAME": "IRIDIUM 33 DEB", "OBJECT_ID": "1997-051CB", "EPOCH": "2025-12-25T12:53:56.995008", "MEAN_MOTION": 14.49641936, "ECCENTRICITY": 0.0008794, "INCLINATION": 86.391, "RA_OF_ASC_NODE": 40.5342, "ARG_OF_PERICENTER": 148.7203, "MEAN_ANOMALY": 339.7416, "EPHEMERIS_TYPE": 0, "CLASSIFICATION_TYPE": "U", "NORAD_CAT_ID": 33966, "ELEMENT_SET_NO": 999, "REV_AT_EPOCH": 88627, "BSTAR": 0.00048825, "MEAN_MOTION_DOT": 1.896e-05, "MEAN_MOTION_DDOT": 0}, "tle": {"line1": "1 33966U 97051CB  25359.53746522  .00001896  00000+0  48825-3 0  9990", "line2": "2 33966  86.3910  40.5342 0008794 148.7203 339.7416 14.49641936886278"}}, "geometry": {"type": "Point", "coordinates": [36.66703234267947, -44.734788632584426]}}, {"type": "Feature", "properties": {"norad_id": 34071, "name": "IRIDIUM 33 DEB", "group": "iridium-33-debris", "lat": 15.288252274141085, "lon": 12.980228006534238, "alt_km": 724.2075378448162, "timestamp": "2025-12-26T04:40:06.169971+00:00", "meta": {"OBJECT_NAME": "IRIDIUM 33 DEB", "OBJECT_ID": "1997-051CE", "EPOCH": "2025-12-25T23:37:39.486720", "MEAN_MOTION": 14.49522198, "ECCENTRICITY": 0.00098179, "INCLINATION": 86.3452, "RA_OF_ASC_NODE": 12.0704, "ARG_OF_PERICENTER": 72.3637, "MEAN_ANOMALY": 287.8639, "EPHEMERIS_TYPE": 0, "CLASSIFICATION_TYPE": "U", "NORAD_CAT_ID": 34071, "ELEMENT_SET_NO": 999, "REV_AT_EPOCH": 88526, "BSTAR": 0.00060388298, "MEAN_MOTION_DOT": 2.335e-05, "MEAN_MOTION_DDOT": 0}, "tle": {"line1": "1 34071U 97051CE  25359.98448480  .00002335  00000+0  60388-3 0  9996", "line2": "2 34071  86.3452  12.0704 0009817  72.3637 287.8639 14.49522198885269"}}, "geometry": {"type": "Point", "coordinates": [12.980228006534238, 15.288252274141085]}}, {"type": "Feature", "properties": {"norad_id": 34077, "name": "IRIDIUM 33 DEB", "group": "iridium-33-debris", "lat": -63.3850789278529, "lon": -127.17208667415926, "alt_km": 686.5938487413669, "timestamp": "2025-12-26T04:40:06.169981+00:00", "meta": {"OBJECT_NAME": "IRIDIUM 33 DEB", "OBJECT_ID": "1997-051CL", "EPOCH": "2025-12-25T15:09:22.159872", "MEAN_MOTION": 14.64997982, "ECCENTRICITY": 0.0008673, "INCLINATION": 86.3846, "RA_OF_ASC_NODE": 45.8272, "ARG_OF_PERICENTER": 357.0733, "MEAN_ANOMALY": 159.1877, "EPHEMERIS_TYPE": 0, "CLASSIFICATION_TYPE": "U", "NORAD_CAT_ID": 34077, "ELEMENT_SET_NO": 999, "REV_AT_EPOCH": 88521, "BSTAR": 0.0015833, "MEAN_MOTION_DOT": 8.51e-05, "MEAN_MOTION_DDOT": 0}, "tle": {"line1": "1 34077U 97051CL  25359.63150648  .00008510  00000+0  15833-2 0  9995", "line2": "2 34077  86.3846  45.8272 0008673 357.0733 159.1877 14.64997982885219"}}, "geometry": {"type": "Point", "coordinates": [-127.17208667415926, -63.3850789278529]}}]}